OBJECT_NAME,OBJECT_ID,EPOCH,MEAN_MOTION,ECCENTRICITY,INCLINATION,RA_OF_ASC_NODE,ARG_OF_PERICENTER,MEAN_ANOMALY,EPHEMERIS_TYPE,CLASSIFICATION_TYPE,NORAD_CAT_ID,ELEMENT_SET_NO,REV_AT_EPOCH,BSTAR,MEAN_MOTION_DOT,MEAN_MOTION_DDOT
STARLINK-35868,2025-268Y,2026-06-08T19:00:22.902336,15.27595510,.0002451,42.9908,192.4789,268.3952,91.6618,0,U,66579,999,3189,.59501E-3,.16156E-3,0
STARLINK-35872,2025-268Z,2026-06-08T18:54:50.226912,15.27595451,.0001983,42.9942,192.4462,278.9507,81.1120,0,U,66580,999,3189,.85738E-3,.23418E-3,0
STARLINK-35744,2025-268AA,2026-06-08T18:49:16.714272,15.27602302,.0002176,42.9947,192.4152,274.2469,85.8134,0,U,66581,999,3189,.92061E-3,.25176E-3,0
STARLINK-35746,2025-268AB,2026-06-08T18:40:00.850368,15.27616487,.0001994,42.9929,192.3618,284.7957,75.2674,0,U,66582,999,3189,.39756E-3,.10706E-3,0
STARLINK-35941,2025-268AC,2026-06-08T18:34:29.267040,15.27590240,.0000531,43.0046,192.3386,276.0604,84.0187,0,U,66583,999,3189,.62344E-3,.16938E-3,0
STARLINK-35939,2025-268AD,2026-06-09T00:45:33.169824,15.27591114,.0002425,43.0010,190.8311,275.7594,84.2981,0,U,66584,999,3193,.58049E-3,.15752E-3,0
STARLINK-35963,2025-268AE,2026-06-09T03:39:16.851168,15.27590775,.0001595,43.0007,190.8880,270.2590,89.8079,0,U,66585,999,3194,.41181E-3,.11091E-3,0
STARLINK-36076,2025-270A,2026-06-08T23:58:06.441024,15.27591099,.0002494,43.0011,260.2447,262.7720,97.2849,0,U,66588,999,3167,.47279E-3,.12775E-3,0
STARLINK-35447,2025-270B,2026-06-08T13:28:37.468128,15.27590655,.00036263,42.9996,262.9858,275.5119,84.5319,0,U,66589,999,3171,.84389786E-3,.23043E-3,0
STARLINK-35429,2025-270C,2026-06-08T23:37:58.689120,15.27619657,.0002429,43.0007,260.9975,256.5737,103.4844,0,U,66590,999,3177,.75496E-3,.20597E-3,0
STARLINK-36058,2025-270D,2026-06-08T13:36:02.773728,15.27565135,.00023176,43.0051,263.0203,266.7586,93.3000,0,U,66591,999,3160,.61150824E-3,.16596E-3,0
STARLINK-36066,2025-270E,2026-06-08T23:19:27.638688,15.27598506,.0001806,43.0020,260.9015,261.1116,98.9531,0,U,66592,999,3156,.50134E-3,.13567E-3,0
STARLINK-36031,2025-270F,2026-06-09T03:15:40.634208,15.27597732,.0001196,43.0011,259.5496,258.0733,101.9984,0,U,66593,999,3169,.53425E-3,.14476E-3,0
STARLINK-36032,2025-270G,2026-06-08T23:15:45.855936,15.27615348,.0002087,42.9938,260.8724,288.8316,71.2309,0,U,66594,999,3147,.50545E-3,.13688E-3,0
STARLINK-35711,2025-270H,2026-06-09T00:12:54.582048,15.27597401,.0002473,43.0030,260.3143,265.7604,94.2965,0,U,66595,999,3178,.56964E-3,.15455E-3,0
STARLINK-35811,2025-270J,2026-06-08T23:30:33.825888,15.27593633,.0002351,43.0019,260.9618,282.0967,77.9621,0,U,66596,999,3177,.7199E-3,.19609E-3,0
STARLINK-35820,2025-270K,2026-06-08T13:39:43.578432,15.27595902,.00012593,43.0051,263.0412,255.5318,104.5394,0,U,66597,999,3171,.81459453E-3,.22232E-3,0
STARLINK-35981,2025-270L,2026-06-08T23:50:42.339840,15.27587347,.0002696,43.0024,260.1996,261.6543,98.4003,0,U,66598,999,3152,.44783E-3,.12085E-3,0
STARLINK-35930,2025-270M,2026-06-08T13:24:55.490976,15.27596616,.0003025,43.0014,262.9586,280.4312,79.6199,0,U,66599,999,3160,.75594875E-3,.2061E-3,0
STARLINK-35980,2025-270N,2026-06-08T23:26:49.546176,15.27635029,.0003117,42.9954,260.9330,276.2419,83.8078,0,U,66600,999,3156,.75234E-3,.20535E-3,0
STARLINK-35978,2025-270P,2026-06-07T13:50:43.696032,15.27574717,.00028888,42.9970,268.4900,281.9817,78.0711,0,U,66601,999,3129,.78329773E-3,.21353E-3,0
STARLINK-36050,2025-270Q,2026-06-08T23:25:00.689952,15.27597793,.0001856,43.0015,260.9284,264.4324,95.6316,0,U,66602,999,3156,.57761E-3,.15675E-3,0
STARLINK-36048,2025-270R,2026-06-09T00:01:46.908768,15.27598537,.0001349,43.0061,260.2570,301.2974,58.7745,0,U,66603,999,3157,.7393E-4,.1774E-4,0
STARLINK-35977,2025-270S,2026-06-08T23:45:09.356832,15.27598740,.0001581,43.0017,260.1688,275.3351,84.7320,0,U,66604,999,3167,.67291E-3,.18312E-3,0
STARLINK-36052,2025-270T,2026-06-08T13:45:17.172288,15.27591407,.00014909,43.0012,263.0579,291.4282,68.6410,0,U,66605,999,3160,.95445576E-3,.26105E-3,0
STARLINK-36063,2025-270U,2026-06-09T00:09:12.642048,15.27592274,.0002099,43.0037,260.2936,271.8598,88.2013,0,U,66606,999,3167,.52094E-3,.14106E-3,0
STARLINK-35993,2025-270V,2026-06-08T13:41:35.602080,15.27582069,.00014729,43.0025,263.0424,296.2566,63.8135,0,U,66607,999,3150,.96802649E-3,.26473E-3,0
STARLINK-36036,2025-270W,2026-06-09T03:11:58.500672,15.27600625,.0001069,43.0002,259.5210,255.1906,104.8828,0,U,66608,999,3153,.27425E-3,.7297E-4,0
STARLINK-36034,2025-270X,2026-06-08T23:36:07.894080,15.27608578,.0001304,42.9995,260.9779,285.8412,74.2296,0,U,66609,999,3150,.61184E-3,.16627E-3,0
STARLINK-35680,2025-270Y,2026-06-08T13:30:28.506816,15.27588031,.00048997,43.0057,262.9875,276.3296,83.6998,0,U,66610,999,3171,.5793389E-3,.15721E-3,0
