STARLINK-35868          
1 66579U 25268Y   26159.79193174  .00016156  00000+0  59501-3 0  9991
2 66579  42.9908 192.4789 0002451 268.3952  91.6618 15.27595510 31896
STARLINK-35872          
1 66580U 25268Z   26159.78808133  .00023418  00000+0  85738-3 0  9990
2 66580  42.9942 192.4462 0001983 278.9507  81.1120 15.27595451 31892
STARLINK-35744          
1 66581U 25268AA  26159.78422123  .00025176  00000+0  92061-3 0  9992
2 66581  42.9947 192.4152 0002176 274.2469  85.8134 15.27602302 31895
STARLINK-35746          
1 66582U 25268AB  26159.77778762  .00010706  00000+0  39756-3 0  9990
2 66582  42.9929 192.3618 0001994 284.7957  75.2674 15.27616487 31898
STARLINK-35941          
1 66583U 25268AC  26159.77394985  .00016938  00000+0  62344-3 0  9994
2 66583  43.0046 192.3386 0000531 276.0604  84.0187 15.27590240 31897
STARLINK-35939          
1 66584U 25268AD  26160.03163391  .00015752  00000+0  58049-3 0  9991
2 66584  43.0010 190.8311 0002425 275.7594  84.2981 15.27591114 31938
STARLINK-35963          
1 66585U 25268AE  26160.15227837  .00011091  00000+0  41181-3 0  9992
2 66585  43.0007 190.8880 0001595 270.2590  89.8079 15.27590775 31941
STARLINK-36076          
1 66588U 25270A   26159.99868566  .00012775  00000+0  47279-3 0  9992
2 66588  43.0011 260.2447 0002494 262.7720  97.2849 15.27591099 31678
STARLINK-35447          
1 66589U 25270B   26159.56154477  .00023043  00000+0  84390-3 0  9990
2 66589  42.9996 262.9858 0003626 275.5119  84.5319 15.27590655 31719
STARLINK-35429          
1 66590U 25270C   26159.98470705  .00020597  00000+0  75496-3 0  9991
2 66590  43.0007 260.9975 0002429 256.5737 103.4844 15.27619657 31773
STARLINK-36058          
1 66591U 25270D   26159.56669877  .00016596  00000+0  61151-3 0  9993
2 66591  43.0051 263.0203 0002317 266.7586  93.3000 15.27565135 31606
STARLINK-36066          
1 66592U 25270E   26159.97184767  .00013567  00000+0  50134-3 0  9993
2 66592  43.0020 260.9015 0001806 261.1116  98.9531 15.27598506 31563
STARLINK-36031          
1 66593U 25270F   26160.13588697  .00014476  00000+0  53425-3 0  9990
2 66593  43.0011 259.5496 0001196 258.0733 101.9984 15.27597732 31694
STARLINK-36032          
1 66594U 25270G   26159.96928074  .00013688  00000+0  50545-3 0  9991
2 66594  42.9938 260.8724 0002087 288.8316  71.2309 15.27615348 31478
STARLINK-35711          
1 66595U 25270H   26160.00896507  .00015455  00000+0  56964-3 0  9999
2 66595  43.0030 260.3143 0002473 265.7604  94.2965 15.27597401 31783
STARLINK-35811          
1 66596U 25270J   26159.97955817  .00019609  00000+0  71990-3 0  9995
2 66596  43.0019 260.9618 0002351 282.0967  77.9621 15.27593633 31772
STARLINK-35820          
1 66597U 25270K   26159.56925438  .00022232  00000+0  81459-3 0  9994
2 66597  43.0051 263.0412 0001259 255.5318 104.5394 15.27595902 31715
STARLINK-35981          
1 66598U 25270L   26159.99354560  .00012085  00000+0  44783-3 0  9998
2 66598  43.0024 260.1996 0002696 261.6543  98.4003 15.27587347 31526
STARLINK-35930          
1 66599U 25270M   26159.55897559  .00020610  00000+0  75595-3 0  9999
2 66599  43.0014 262.9586 0003025 280.4312  79.6199 15.27596616 31606
STARLINK-35980          
1 66600U 25270N   26159.97696234  .00020535  00000+0  75234-3 0  9991
2 66600  42.9954 260.9330 0003117 276.2419  83.8078 15.27635029 31568
STARLINK-35978          
1 66601U 25270P   26158.57689463  .00021353  00000+0  78330-3 0  9992
2 66601  42.9970 268.4900 0002888 281.9817  78.0711 15.27574717 31298
STARLINK-36050          
1 66602U 25270Q   26159.97570243  .00015675  00000+0  57761-3 0  9998
2 66602  43.0015 260.9284 0001856 264.4324  95.6316 15.27597793 31561
STARLINK-36048          
1 66603U 25270R   26160.00123737  .00001774  00000+0  73930-4 0  9999
2 66603  43.0061 260.2570 0001349 301.2974  58.7745 15.27598537 31576
STARLINK-35977          
1 66604U 25270S   26159.98969163  .00018312  00000+0  67291-3 0  9994
2 66604  43.0017 260.1688 0001581 275.3351  84.7320 15.27598740 31670
STARLINK-36052          
1 66605U 25270T   26159.57311542  .00026105  00000+0  95446-3 0  9994
2 66605  43.0012 263.0579 0001490 291.4282  68.6410 15.27591407 31605
STARLINK-36063          
1 66606U 25270U   26160.00639632  .00014106  00000+0  52094-3 0  9998
2 66606  43.0037 260.2936 0002099 271.8598  88.2013 15.27592274 31674
STARLINK-35993          
1 66607U 25270V   26159.57055095  .00026473  00000+0  96803-3 0  9990
2 66607  43.0025 263.0424 0001472 296.2566  63.8135 15.27582069 31502
STARLINK-36036          
1 66608U 25270W   26160.13331598  .00007297  00000+0  27425-3 0  9997
2 66608  43.0002 259.5210 0001069 255.1906 104.8828 15.27600625 31532
STARLINK-36034          
1 66609U 25270X   26159.98342470  .00016627  00000+0  61184-3 0  9997
2 66609  42.9995 260.9779 0001304 285.8412  74.2296 15.27608578 31503
STARLINK-35680          
1 66610U 25270Y   26159.56282994  .00015721  00000+0  57934-3 0  9999
2 66610  43.0057 262.9875 0004899 276.3296  83.6998 15.27588031 31719
